{
    "links": {
        "self": "http://www.neowsapp.com/rest/v1/neo/3802420?api_key=iIulBulltgU6a56xZRHN4H3l9WmuAYTsLGpBGhQ2"
    },
    "id": "3802420",
    "neo_reference_id": "3802420",
    "name": "(2018 GK1)",
    "designation": "2018 GK1",
    "nasa_jpl_url": "http://ssd.jpl.nasa.gov/sbdb.cgi?sstr=3802420",
    "absolute_magnitude_h": 20.2,
    "estimated_diameter": {
        "kilometers": {
            "estimated_diameter_min": 0.2424124811,
            "estimated_diameter_max": 0.5420507863
        },
        "meters": {
            "estimated_diameter_min": 242.4124811008,
            "estimated_diameter_max": 542.0507863358
        },
        "miles": {
            "estimated_diameter_min": 0.1506280858,
            "estimated_diameter_max": 0.3368146392
        },
        "feet": {
            "estimated_diameter_min": 795.3165644948,
            "estimated_diameter_max": 1778.3819018419
        }
    },
    "is_potentially_hazardous_asteroid": false,
    "close_approach_data": [
        {
            "close_approach_date": "2018-03-30",
            "close_approach_date_full": "2018-Mar-30 08:42",
            "epoch_date_close_approach": 1522399320000,
            "relative_velocity": {
                "kilometers_per_second": "23.1925582624",
                "kilometers_per_hour": "83493.2097446112",
                "miles_per_hour": "51879.4335771447"
            },
            "miss_distance": {
                "astronomical": "0.4328417807",
                "lunar": "168.3754526923",
                "kilometers": "64752208.439727109",
                "miles": "40235156.5954437442"
            },
            "orbiting_body": "Earth"
        }
    ],
    "orbital_data": {
        "orbit_id": "7",
        "orbit_determination_date": "2018-05-13 06:25:06",
        "first_observation_date": "2018-04-09",
        "last_observation_date": "2018-05-12",
        "data_arc_in_days": 33,
        "observations_used": 51,
        "orbit_uncertainty": "7",
        "minimum_orbit_intersection": ".279284",
        "jupiter_tisserand_invariant": "3.309",
        "epoch_osculation": "2459000.5",
        "eccentricity": ".4186994109481027",
        "semi_major_axis": "2.153062751219258",
        "inclination": "40.23796304496909",
        "ascending_node_longitude": "6.738550877408569",
        "orbital_period": "1153.940611871502",
        "perihelion_distance": "1.251576645549453",
        "perihelion_argument": "156.9980611300162",
        "aphelion_distance": "3.054548856889062",
        "perihelion_time": "2459353.100465351596",
        "mean_anomaly": "249.9976600002795",
        "mean_motion": ".3119744606406902",
        "equinox": "J2000",
        "orbit_class": {
            "orbit_class_type": "AMO",
            "orbit_class_description": "Near-Earth asteroid orbits similar to that of 1221 Amor",
            "orbit_class_range": "1.017 AU < q (perihelion) < 1.3 AU"
        }
    },
    "is_sentry_object": false
}